[{"OBJECT_NAME":"OSCAR 31 [?]","OBJECT_ID":"1988-074B","EPOCH":"2022-08-19T10:09:31.853376","MEAN_MOTION":13.42310946,"ECCENTRICITY":0.0096476,"INCLINATION":90.0076,"RA_OF_ASC_NODE":18.0939,"ARG_OF_PERICENTER":95.5711,"MEAN_ANOMALY":318.9397,"EPHEMERIS_TYPE":0,"CLASSIFICATION_TYPE":"U","NORAD_CAT_ID":19420,"ELEMENT_SET_NO":999,"REV_AT_EPOCH":66399,"BSTAR":0.00014805,"MEAN_MOTION_DOT":9.6e-7,"MEAN_MOTION_DDOT":0}]