OSCAR 31 [?]            
1 19420U 88074B   22231.42328534  .00000096  00000+0  14805-3 0  9999
2 19420  90.0076  18.0939 0096476  95.5711 318.9397 13.42310946663996
